[{"OBJECT_NAME":"STARLINK-5644","OBJECT_ID":"2023-013AQ","EPOCH":"2026-03-09T01:10:03.131904","MEAN_MOTION":15.02537816,"ECCENTRICITY":0.00014034,"INCLINATION":43.0029,"RA_OF_ASC_NODE":316.749,"ARG_OF_PERICENTER":267.6266,"MEAN_ANOMALY":92.4415,"EPHEMERIS_TYPE":0,"CLASSIFICATION_TYPE":"U","NORAD_CAT_ID":55369,"ELEMENT_SET_NO":999,"REV_AT_EPOCH":17146,"BSTAR":6.470814e-6,"MEAN_MOTION_DOT":-1.16e-6,"MEAN_MOTION_DDOT":0},{"OBJECT_NAME":"RAPIDEYE 3","OBJECT_ID":"2008-040D","EPOCH":"2026-03-09T19:34:21.496512","MEAN_MOTION":15.06489596,"ECCENTRICITY":0.00114187,"INCLINATION":97.3959,"RA_OF_ASC_NODE":102.9968,"ARG_OF_PERICENTER":27.1842,"MEAN_ANOMALY":332.9981,"EPHEMERIS_TYPE":0,"CLASSIFICATION_TYPE":"U","NORAD_CAT_ID":33315,"ELEMENT_SET_NO":999,"REV_AT_EPOCH":95131,"BSTAR":0.00019030529,"MEAN_MOTION_DOT":2.754e-5,"MEAN_MOTION_DDOT":0}]
